ONEWEB-0718             
1 56081U 23043AM  25252.23591880  .00000161  00000+0  39491-3 0  9990
2 56081  87.9043 315.2680 0002014 114.3732 245.7608 13.15548366119494
ONEWEB-0561             
1 56710U 23068A   25252.29158483  .00000132  00000+0  29388-3 0  9992
2 56710  87.9279 330.4529 0001973  84.0211 276.1147 13.20770543112425
ONEWEB-0668             
1 56711U 23068B   25252.03987919  .00000076  00000+0  16530-3 0  9991
2 56711  87.8998 284.7953 0002198 106.2822 253.8551 13.16592655114783
ONEWEB-0676             
1 56712U 23068C   25252.24807348  .00000028  00000+0  38823-4 0  9999
2 56712  87.8990 284.7736 0002029  83.8538 276.2824 13.16594506114736
ONEWEB-0677             
1 56713U 23068D   25252.20478384  .00000030  00000+0  43003-4 0  9999
2 56713  87.9282 330.4465 0002124  95.4168 264.7208 13.20770655112714
ONEWEB-0678             
1 56714U 23068E   25252.20421901 -.00000060  00000+0 -19415-3 0  9997
2 56714  87.9047 315.2470 0001606  91.1898 268.9416 13.15548570112347
ONEWEB-0679             
1 56715U 23068F   25252.14122309  .00000043  00000+0  77699-4 0  9999
2 56715  87.8987 284.7874 0002444  94.3070 265.8340 13.16594350114742
ONEWEB-0680             
1 56716U 23068G   25252.11221975  .00000067  00000+0  13129-3 0  9999
2 56716  87.9213 300.0524 0002428 106.8892 253.2508 13.21825451113968
ONEWEB-0681             
1 56717U 23068H   25252.16585132  .00000123  00000+0  26600-3 0  9994
2 56717  87.9217 300.0586 0002712  75.5486 284.5949 13.21827327113968
ONEWEB-0682             
1 56718U 23068J   25252.23036324  .00000113  00000+0  26728-3 0  9997
2 56718  87.9036 315.2625 0002344 105.7164 254.4225 13.15548320112519
ONEWEB-0683             
1 56719U 23068K   25252.17570226  .00000157  00000+0  38331-3 0  9996
2 56719  87.9047 315.2513 0002077 103.8453 256.2909 13.15549215112479
ONEWEB-0684             
1 56720U 23068L   25252.25967162  .00000101  00000+0  23303-3 0  9998
2 56720  87.9030 315.2341 0000469 112.5265 247.5915 13.15549778112310
ONEWEB-0686             
1 56721U 23068M   25252.13090463  .00000009  00000+0 -99581-5 0  9998
2 56721  87.8981 284.8196 0001886 103.1436 256.9906 13.16596840114739
ONEWEB-0694             
1 56722U 23068N   25252.02166971 -.00000370  00000+0 -10026-2 0  9991
2 56722  87.8992 284.7694 0002236 101.7984 258.3398 13.16598300114774
ONEWEB-0696             
1 56723U 23068P   25252.14083168  .00000011  00000+0 -59015-5 0  9996
2 56723  87.9040 315.3113 0001642  93.0187 267.1131 13.15549476112416
ONEWEB-0703             
1 56724U 23068Q   25252.22639630  .00000141  00000+0  34117-3 0  9994
2 56724  87.9035 315.2788 0001662  61.6397 298.4901 13.15549553112311
ONEWEB-0721             
1 56725U 23068R   25252.21494567  .00000080  00000+0  15723-3 0  9996
2 56725  86.6874 175.0849 0001901  74.5786 285.5557 13.22444400120800
