[{"OBJECT_NAME":"ONEWEB-0718","OBJECT_ID":"2023-043AM","EPOCH":"2025-09-09T05:39:43.384320","MEAN_MOTION":13.15548366,"ECCENTRICITY":0.00020146,"INCLINATION":87.9043,"RA_OF_ASC_NODE":315.268,"ARG_OF_PERICENTER":114.3732,"MEAN_ANOMALY":245.7608,"EPHEMERIS_TYPE":0,"CLASSIFICATION_TYPE":"U","NORAD_CAT_ID":56081,"ELEMENT_SET_NO":999,"REV_AT_EPOCH":11949,"BSTAR":0.00039490958,"MEAN_MOTION_DOT":1.61e-6,"MEAN_MOTION_DDOT":0},{"OBJECT_NAME":"ONEWEB-0561","OBJECT_ID":"2023-068A","EPOCH":"2025-09-09T06:59:52.929312","MEAN_MOTION":13.20770543,"ECCENTRICITY":0.00019739,"INCLINATION":87.9279,"RA_OF_ASC_NODE":330.4529,"ARG_OF_PERICENTER":84.0211,"MEAN_ANOMALY":276.1147,"EPHEMERIS_TYPE":0,"CLASSIFICATION_TYPE":"U","NORAD_CAT_ID":56710,"ELEMENT_SET_NO":999,"REV_AT_EPOCH":11242,"BSTAR":0.00029387535,"MEAN_MOTION_DOT":1.32e-6,"MEAN_MOTION_DDOT":0},{"OBJECT_NAME":"ONEWEB-0668","OBJECT_ID":"2023-068B","EPOCH":"2025-09-09T00:57:25.562016","MEAN_MOTION":13.16592655,"ECCENTRICITY":0.00021988,"INCLINATION":87.8998,"RA_OF_ASC_NODE":284.7953,"ARG_OF_PERICENTER":106.2822,"MEAN_ANOMALY":253.8551,"EPHEMERIS_TYPE":0,"CLASSIFICATION_TYPE":"U","NORAD_CAT_ID":56711,"ELEMENT_SET_NO":999,"REV_AT_EPOCH":11478,"BSTAR":0.00016529913,"MEAN_MOTION_DOT":7.6e-7,"MEAN_MOTION_DDOT":0},{"OBJECT_NAME":"ONEWEB-0676","OBJECT_ID":"2023-068C","EPOCH":"2025-09-09T05:57:13.548672","MEAN_MOTION":13.16594506,"ECCENTRICITY":0.00020296,"INCLINATION":87.899,"RA_OF_ASC_NODE":284.7736,"ARG_OF_PERICENTER":83.8538,"MEAN_ANOMALY":276.2824,"EPHEMERIS_TYPE":0,"CLASSIFICATION_TYPE":"U","NORAD_CAT_ID":56712,"ELEMENT_SET_NO":999,"REV_AT_EPOCH":11473,"BSTAR":3.8823048e-5,"MEAN_MOTION_DOT":2.8e-7,"MEAN_MOTION_DDOT":0},{"OBJECT_NAME":"ONEWEB-0677","OBJECT_ID":"2023-068D","EPOCH":"2025-09-09T04:54:53.323776","MEAN_MOTION":13.20770655,"ECCENTRICITY":0.00021244,"INCLINATION":87.9282,"RA_OF_ASC_NODE":330.4465,"ARG_OF_PERICENTER":95.4168,"MEAN_ANOMALY":264.7208,"EPHEMERIS_TYPE":0,"CLASSIFICATION_TYPE":"U","NORAD_CAT_ID":56713,"ELEMENT_SET_NO":999,"REV_AT_EPOCH":11271,"BSTAR":4.3003011e-5,"MEAN_MOTION_DOT":3.0e-7,"MEAN_MOTION_DDOT":0},{"OBJECT_NAME":"ONEWEB-0678","OBJECT_ID":"2023-068E","EPOCH":"2025-09-09T04:54:04.522464","MEAN_MOTION":13.1554857,"ECCENTRICITY":0.00016066,"INCLINATION":87.9047,"RA_OF_ASC_NODE":315.247,"ARG_OF_PERICENTER":91.1898,"MEAN_ANOMALY":268.9416,"EPHEMERIS_TYPE":0,"CLASSIFICATION_TYPE":"U","NORAD_CAT_ID":56714,"ELEMENT_SET_NO":999,"REV_AT_EPOCH":11234,"BSTAR":-0.00019414706,"MEAN_MOTION_DOT":-6.0e-7,"MEAN_MOTION_DDOT":0},{"OBJECT_NAME":"ONEWEB-0679","OBJECT_ID":"2023-068F","EPOCH":"2025-09-09T03:23:21.674976","MEAN_MOTION":13.1659435,"ECCENTRICITY":0.00024444,"INCLINATION":87.8987,"RA_OF_ASC_NODE":284.7874,"ARG_OF_PERICENTER":94.307,"MEAN_ANOMALY":265.834,"EPHEMERIS_TYPE":0,"CLASSIFICATION_TYPE":"U","NORAD_CAT_ID":56715,"ELEMENT_SET_NO":999,"REV_AT_EPOCH":11474,"BSTAR":7.769915e-5,"MEAN_MOTION_DOT":4.3e-7,"MEAN_MOTION_DDOT":0},{"OBJECT_NAME":"ONEWEB-0680","OBJECT_ID":"2023-068G","EPOCH":"2025-09-09T02:41:35.786400","MEAN_MOTION":13.21825451,"ECCENTRICITY":0.00024285,"INCLINATION":87.9213,"RA_OF_ASC_NODE":300.0524,"ARG_OF_PERICENTER":106.8892,"MEAN_ANOMALY":253.2508,"EPHEMERIS_TYPE":0,"CLASSIFICATION_TYPE":"U","NORAD_CAT_ID":56716,"ELEMENT_SET_NO":999,"REV_AT_EPOCH":11396,"BSTAR":0.00013129254,"MEAN_MOTION_DOT":6.7e-7,"MEAN_MOTION_DDOT":0},{"OBJECT_NAME":"ONEWEB-0681","OBJECT_ID":"2023-068H","EPOCH":"2025-09-09T03:58:49.554048","MEAN_MOTION":13.21827327,"ECCENTRICITY":0.00027123,"INCLINATION":87.9217,"RA_OF_ASC_NODE":300.0586,"ARG_OF_PERICENTER":75.5486,"MEAN_ANOMALY":284.5949,"EPHEMERIS_TYPE":0,"CLASSIFICATION_TYPE":"U","NORAD_CAT_ID":56717,"ELEMENT_SET_NO":999,"REV_AT_EPOCH":11396,"BSTAR":0.00026599684,"MEAN_MOTION_DOT":1.23e-6,"MEAN_MOTION_DDOT":0},{"OBJECT_NAME":"ONEWEB-0682","OBJECT_ID":"2023-068J","EPOCH":"2025-09-09T05:31:43.383936","MEAN_MOTION":13.1554832,"ECCENTRICITY":0.0002344,"INCLINATION":87.9036,"RA_OF_ASC_NODE":315.2625,"ARG_OF_PERICENTER":105.7164,"MEAN_ANOMALY":254.4225,"EPHEMERIS_TYPE":0,"CLASSIFICATION_TYPE":"U","NORAD_CAT_ID":56718,"ELEMENT_SET_NO":999,"REV_AT_EPOCH":11251,"BSTAR":0.00026727654,"MEAN_MOTION_DOT":1.13e-6,"MEAN_MOTION_DDOT":0},{"OBJECT_NAME":"ONEWEB-0683","OBJECT_ID":"2023-068K","EPOCH":"2025-09-09T04:13:00.675264","MEAN_MOTION":13.15549215,"ECCENTRICITY":0.00020776,"INCLINATION":87.9047,"RA_OF_ASC_NODE":315.2513,"ARG_OF_PERICENTER":103.8453,"MEAN_ANOMALY":256.2909,"EPHEMERIS_TYPE":0,"CLASSIFICATION_TYPE":"U","NORAD_CAT_ID":56719,"ELEMENT_SET_NO":999,"REV_AT_EPOCH":11247,"BSTAR":0.00038331109,"MEAN_MOTION_DOT":1.57e-6,"MEAN_MOTION_DDOT":0},{"OBJECT_NAME":"ONEWEB-0684","OBJECT_ID":"2023-068L","EPOCH":"2025-09-09T06:13:55.627968","MEAN_MOTION":13.15549778,"ECCENTRICITY":4.694e-5,"INCLINATION":87.903,"RA_OF_ASC_NODE":315.2341,"ARG_OF_PERICENTER":112.5265,"MEAN_ANOMALY":247.5915,"EPHEMERIS_TYPE":0,"CLASSIFICATION_TYPE":"U","NORAD_CAT_ID":56720,"ELEMENT_SET_NO":999,"REV_AT_EPOCH":11231,"BSTAR":0.00023302567,"MEAN_MOTION_DOT":1.01e-6,"MEAN_MOTION_DDOT":0},{"OBJECT_NAME":"ONEWEB-0686","OBJECT_ID":"2023-068M","EPOCH":"2025-09-09T03:08:30.160032","MEAN_MOTION":13.1659684,"ECCENTRICITY":0.00018867,"INCLINATION":87.8981,"RA_OF_ASC_NODE":284.8196,"ARG_OF_PERICENTER":103.1436,"MEAN_ANOMALY":256.9906,"EPHEMERIS_TYPE":0,"CLASSIFICATION_TYPE":"U","NORAD_CAT_ID":56721,"ELEMENT_SET_NO":999,"REV_AT_EPOCH":11473,"BSTAR":-9.958136e-6,"MEAN_MOTION_DOT":9.0e-8,"MEAN_MOTION_DDOT":0},{"OBJECT_NAME":"ONEWEB-0694","OBJECT_ID":"2023-068N","EPOCH":"2025-09-09T00:31:12.262944","MEAN_MOTION":13.165983,"ECCENTRICITY":0.00022369,"INCLINATION":87.8992,"RA_OF_ASC_NODE":284.7694,"ARG_OF_PERICENTER":101.7984,"MEAN_ANOMALY":258.3398,"EPHEMERIS_TYPE":0,"CLASSIFICATION_TYPE":"U","NORAD_CAT_ID":56722,"ELEMENT_SET_NO":999,"REV_AT_EPOCH":11477,"BSTAR":-0.0010025648,"MEAN_MOTION_DOT":-3.7e-6,"MEAN_MOTION_DDOT":0},{"OBJECT_NAME":"ONEWEB-0696","OBJECT_ID":"2023-068P","EPOCH":"2025-09-09T03:22:47.857152","MEAN_MOTION":13.15549476,"ECCENTRICITY":0.00016421,"INCLINATION":87.904,"RA_OF_ASC_NODE":315.3113,"ARG_OF_PERICENTER":93.0187,"MEAN_ANOMALY":267.1131,"EPHEMERIS_TYPE":0,"CLASSIFICATION_TYPE":"U","NORAD_CAT_ID":56723,"ELEMENT_SET_NO":999,"REV_AT_EPOCH":11241,"BSTAR":-5.901487e-6,"MEAN_MOTION_DOT":1.1e-7,"MEAN_MOTION_DDOT":0},{"OBJECT_NAME":"ONEWEB-0703","OBJECT_ID":"2023-068Q","EPOCH":"2025-09-09T05:26:00.640320","MEAN_MOTION":13.15549553,"ECCENTRICITY":0.00016624,"INCLINATION":87.9035,"RA_OF_ASC_NODE":315.2788,"ARG_OF_PERICENTER":61.6397,"MEAN_ANOMALY":298.4901,"EPHEMERIS_TYPE":0,"CLASSIFICATION_TYPE":"U","NORAD_CAT_ID":56724,"ELEMENT_SET_NO":999,"REV_AT_EPOCH":11231,"BSTAR":0.0003411745,"MEAN_MOTION_DOT":1.41e-6,"MEAN_MOTION_DDOT":0},{"OBJECT_NAME":"ONEWEB-0721","OBJECT_ID":"2023-068R","EPOCH":"2025-09-09T05:09:31.305888","MEAN_MOTION":13.224444,"ECCENTRICITY":0.00019018,"INCLINATION":86.6874,"RA_OF_ASC_NODE":175.0849,"ARG_OF_PERICENTER":74.5786,"MEAN_ANOMALY":285.5557,"EPHEMERIS_TYPE":0,"CLASSIFICATION_TYPE":"U","NORAD_CAT_ID":56725,"ELEMENT_SET_NO":999,"REV_AT_EPOCH":12080,"BSTAR":0.0001572296,"MEAN_MOTION_DOT":8.0e-7,"MEAN_MOTION_DDOT":0}]
